NORAD_CAT_ID,OBJECT_NAME,OBJECT_TYPE,EPOCH,MEAN_MOTION,ECCENTRICITY,INCLINATION,RA_OF_ASC_NODE,ARG_OF_PERICENTER,MEAN_ANOMALY,BSTAR,MEAN_MOTION_DOT,MEAN_MOTION_DDOT,TLE_LINE0,TLE_LINE1,TLE_LINE2,SEMIMAJOR_AXIS,PERIOD,APOGEE,PERIGEE,DECAYED
52502.0,STARLINK-3912,PAYLOAD,2023-11-28 00:20:48,15.08839409,0.0001509,53.218,177.1737,101.5961,258.52,1.6306e-05,-2.8e-07,0.0,0 STARLINK-3912,1 52502U 22049BD  23332.01444518 -.00000028  00000-0  16306-4 0  9992,2 52502  53.2180 177.1737 0001509 101.5961 258.5200 15.08839409 86829,6917.882,95.438,540.791,538.703,0.0
52502.0,STARLINK-3912,PAYLOAD,2023-11-28 19:25:24,15.08852028,0.0001242,53.2172,173.6092,89.6359,270.4775,0.00025005,3.695e-05,0.0,0 STARLINK-3912,1 52502U 22049BD  23332.80931347  .00003695  00000-0  25005-3 0  9997,2 52502  53.2172 173.6092 0001242  89.6359 270.4775 15.08852028 87100,6917.844,95.437,540.568,538.849,0.0
52502.0,STARLINK-3912,PAYLOAD,2023-11-28 21:00:48,15.08852677,0.0001279,53.2162,173.3118,84.5576,275.5562,0.00040033,6.091e-05,0.0,0 STARLINK-3912,1 52502U 22049BD  23332.87555993  .00006091  00000-0  40033-3 0  9994,2 52502  53.2162 173.3118 0001279  84.5576 275.5562 15.08852677 86952,6917.842,95.437,540.591,538.822,0.0
52502.0,STARLINK-3912,PAYLOAD,2023-11-29 19:16:12,15.08853065,0.0001659,53.2166,169.1511,58.5663,301.5491,9.5283e-05,1.229e-05,0.0,0 STARLINK-3912,1 52502U 22049BD  23333.80291871  .00001229  00000-0  95283-4 0  9996,2 52502  53.2166 169.1511 0001659  58.5663 301.5491 15.08853065 87253,6917.84,95.437,540.853,538.558,0.0
52502.0,STARLINK-3912,PAYLOAD,2023-11-30 19:06:59,15.08853904,0.0001636,53.2181,164.69,64.8312,295.285,-5.1062e-05,-1.101e-05,0.0,0 STARLINK-3912,1 52502U 22049BD  23334.79651666 -.00001101  00000-0 -51062-4 0  9995,2 52502  53.2181 164.6900 0001636  64.8312 295.2850 15.08853904 87405,6917.838,95.437,540.835,538.571,0.0
52502.0,STARLINK-3912,PAYLOAD,2023-12-01 18:57:45,15.08847514,0.0001723,53.2177,160.2292,67.709,292.4085,8.1691e-05,1.013e-05,0.0,0 STARLINK-3912,1 52502U 22049BD  23335.79011158  .00001013  00000-0  81691-4 0  9993,2 52502  53.2177 160.2292 0001723  67.7090 292.4085 15.08847514 87395,6917.857,95.437,540.914,538.53,0.0
52502.0,STARLINK-3912,PAYLOAD,2023-12-02 12:26:59,15.08848669,0.0001573,53.2176,156.9572,89.2189,270.8983,0.00013238,1.82e-05,0.0,0 STARLINK-3912,1 52502U 22049BD  23336.51874576  .00001820  00000-0  13238-3 0  9992,2 52502  53.2176 156.9572 0001573  89.2189 270.8983 15.08848669 87667,6917.854,95.437,540.807,538.631,0.0
52502.0,STARLINK-3912,PAYLOAD,2023-12-02 18:48:32,15.08845444,0.0001553,53.2178,155.7667,106.1997,253.9166,8.7792e-05,1.11e-05,0.0,0 STARLINK-3912,1 52502U 22049BD  23336.78370620  .00001110  00000-0  87792-4 0  9991,2 52502  53.2178 155.7667 0001553 106.1997 253.9166 15.08845444 87545,6917.864,95.437,540.803,538.654,0.0
52502.0,STARLINK-3912,PAYLOAD,2023-12-03 18:39:20,15.08829523,0.0001323,53.2172,151.3039,104.2625,255.8514,-4.7109e-05,-1.037e-05,0.0,0 STARLINK-3912,1 52502U 22049BD  23337.77732283 -.00001037  00000-0 -47109-4 0  9996,2 52502  53.2172 151.3039 0001323 104.2625 255.8514 15.08829523 87858,6917.912,95.438,540.693,538.862,0.0
52502.0,STARLINK-3912,PAYLOAD,2023-12-04 10:33:12,15.08829855,0.0001236,53.2171,148.3312,98.5124,261.6008,-4.2854e-05,-9.7e-06,0.0,0 STARLINK-3912,1 52502U 22049BD  23338.43972678 -.00000970  00000-0 -42854-4 0  9991,2 52502  53.2171 148.3312 0001236  98.5124 261.6008 15.08829855 87793,6917.911,95.438,540.631,538.921,0.0
52502.0,STARLINK-3912,PAYLOAD,2023-12-05 11:59:22,15.08829966,0.0001096,53.217,143.5743,82.9807,277.131,0.00014354,1.997e-05,0.0,0 STARLINK-3912,1 52502U 22049BD  23339.49956801  .00001997  00000-0  14354-3 0  9999,2 52502  53.2170 143.5743 0001096  82.9807 277.1310 15.08829966 88114,6917.911,95.438,540.534,539.018,0.0
52502.0,STARLINK-3912,PAYLOAD,2023-12-06 19:47:04,15.08848092,0.0001189,53.2173,137.6264,95.8436,264.2691,0.00011513,1.545e-05,0.0,0 STARLINK-3912,1 52502U 22049BD  23340.82435439  .00001545  00000-0  11513-3 0  9990,2 52502  53.2173 137.6264 0001189  95.8436 264.2691 15.08848092 88315,6917.856,95.437,540.543,538.898,0.0
52502.0,STARLINK-3912,PAYLOAD,2023-12-07 10:05:33,15.08836892,0.0001192,53.2176,134.9502,98.4359,261.6768,1.9474e-05,2.2e-07,0.0,0 STARLINK-3912,1 52502U 22049BD  23341.42052429  .00000022  00000-0  19474-4 0  9995,2 52502  53.2176 134.9502 0001192  98.4359 261.6768 15.08836892 88401,6917.89,95.438,540.58,538.93,0.0
52502.0,STARLINK-3912,PAYLOAD,2023-12-08 13:07:06,15.08841774,0.0001136,53.2172,129.8955,90.2213,269.891,5.644e-05,6.11e-06,0.0,0 STARLINK-3912,1 52502U 22049BD  23342.54660092  .00000611  00000-0  56440-4 0  9998,2 52502  53.2172 129.8955 0001136  90.2213 269.8910 15.08841774 88414,6917.875,95.437,540.526,538.954,0.0
52502.0,STARLINK-3912,PAYLOAD,2023-12-09 12:57:53,15.08838998,0.0001578,53.2161,125.4326,109.5715,250.5447,5.2029e-05,5.4e-06,0.0,0 STARLINK-3912,1 52502U 22049BD  23343.54020083  .00000540  00000-0  52029-4 0  9999,2 52502  53.2161 125.4326 0001578 109.5715 250.5447 15.08838998 88569,6917.883,95.438,540.84,538.657,0.0
52502.0,STARLINK-3912,PAYLOAD,2023-12-10 09:37:54,15.08839487,0.0001243,53.2168,121.569,93.277,266.8365,4.3808e-05,4.09e-06,0.0,0 STARLINK-3912,1 52502U 22049BD  23344.40132198  .00000409  00000-0  43808-4 0  9995,2 52502  53.2168 121.5690 0001243  93.2770 266.8365 15.08839487 88851,6917.882,95.438,540.607,538.887,0.0
52502.0,STARLINK-3912,PAYLOAD,2023-12-10 14:24:03,15.08841081,0.0001182,53.2172,120.6774,89.0997,271.0131,5.1937e-05,5.39e-06,0.0,0 STARLINK-3912,1 52502U 22049BD  23344.60004077  .00000539  00000-0  51937-4 0  9997,2 52502  53.2172 120.6774 0001182  89.0997 271.0131 15.08841081 88723,6917.877,95.437,540.56,538.924,0.0
52502.0,STARLINK-3912,PAYLOAD,2023-12-10 15:59:26,15.08841851,0.0001178,53.2173,120.3803,83.9764,276.1363,5.6144e-05,6.06e-06,0.0,0 STARLINK-3912,1 52502U 22049BD  23344.66628030  .00000606  00000-0  56144-4 0  9994,2 52502  53.2173 120.3803 0001178  83.9764 276.1363 15.08841851 88733,6917.875,95.437,540.555,538.925,0.0
52502.0,STARLINK-3912,PAYLOAD,2023-12-11 12:39:27,15.08838983,0.0001181,53.2177,116.5144,85.316,274.7967,5.0307e-05,5.13e-06,0.0,0 STARLINK-3912,1 52502U 22049BD  23345.52740222  .00000513  00000-0  50307-4 0  9990,2 52502  53.2177 116.5144 0001181  85.3160 274.7967 15.08838983 88862,6917.883,95.438,540.565,538.931,0.0
52502.0,STARLINK-3912,PAYLOAD,2023-12-12 14:05:39,15.08822316,0.0001145,53.2181,111.7568,62.5805,297.5303,-0.00012685,-2.305e-05,0.0,0 STARLINK-3912,1 52502U 22049BD  23346.58725949 -.00002305  00000-0 -12685-3 0  9995,2 52502  53.2181 111.7568 0001145  62.5805 297.5303 15.08822316 89026,6917.934,95.439,540.592,539.007,0.0
52502.0,STARLINK-3912,PAYLOAD,2023-12-12 15:41:03,15.08812057,0.0001219,53.2181,111.4599,78.5633,281.5496,-0.00021423,-3.693e-05,0.0,0 STARLINK-3912,1 52502U 22049BD  23346.65350820 -.00003693  00000-0 -21423-3 0  9996,2 52502  53.2181 111.4599 0001219  78.5633 281.5496 15.08812057 89190,6917.966,95.439,540.674,538.988,0.0
52502.0,STARLINK-3912,PAYLOAD,2023-12-13 13:56:26,15.08823883,0.000159,53.2181,107.2971,61.3562,298.759,-6.8729e-06,-3.97e-06,0.0,0 STARLINK-3912,1 52502U 22049BD  23347.58086682 -.00000397  00000-0 -68729-5 0  9991,2 52502  53.2181 107.2971 0001590  61.3562 298.7590 15.08823883 89172,6917.93,95.439,540.895,538.695,0.0
52502.0,STARLINK-3912,PAYLOAD,2023-12-13 15:31:49,15.08832736,0.0001352,53.2182,107.0001,93.9071,266.2076,7.121e-05,8.45e-06,0.0,0 STARLINK-3912,1 52502U 22049BD  23347.64709842  .00000845  00000-0  71210-4 0  9992,2 52502  53.2182 107.0001 0001352  93.9071 266.2076 15.08832736 89342,6917.903,95.438,540.703,538.832,0.0
52502.0,STARLINK-3912,PAYLOAD,2023-12-14 12:11:49,15.08834681,0.0001301,53.2169,103.1367,64.013,296.0996,0.00045393,6.943e-05,0.0,0 STARLINK-3912,1 52502U 22049BD  23348.50820611  .00006943  00000-0  45393-3 0  9993,2 52502  53.2169 103.1367 0001301  64.0130 296.0996 15.08834681 89475,6917.897,95.438,540.662,538.862,0.0
52502.0,STARLINK-3912,PAYLOAD,2023-12-14 13:47:12,15.08839531,0.0001463,53.2171,102.8404,56.3504,303.7628,0.00040191,6.114e-05,0.0,0 STARLINK-3912,1 52502U 22049BD  23348.57444743  .00006114  00000-0  40191-3 0  9999,2 52502  53.2171 102.8404 0001463  56.3504 303.7628 15.08839531 89325,6917.882,95.438,540.759,538.735,0.0
52502.0,STARLINK-3912,PAYLOAD,2023-12-14 15:22:34,15.08858339,0.0001555,53.2176,102.5404,47.8714,312.241,0.00028765,4.295e-05,0.0,0 STARLINK-3912,1 52502U 22049BD  23348.64067975  .00004295  00000-0  28765-3 0  9996,2 52502  53.2176 102.5404 0001555  47.8714 312.2410 15.08858339 89496,6917.824,95.436,540.765,538.614,0.0
52502.0,STARLINK-3912,PAYLOAD,2023-12-15 12:02:36,15.08847199,0.0001184,53.2171,98.6734,96.2601,263.8527,4.3055e-05,3.98e-06,0.0,0 STARLINK-3912,1 52502U 22049BD  23349.50181274  .00000398  00000-0  43055-4 0  9991,2 52502  53.2171  98.6734 0001184  96.2601 263.8527 15.08847199 89620,6917.858,95.437,540.542,538.904,0.0
52502.0,STARLINK-3912,PAYLOAD,2023-12-15 13:37:59,15.08844821,0.0001312,53.2172,98.3757,76.7315,283.3823,1.9365e-05,2e-07,0.0,0 STARLINK-3912,1 52502U 22049BD  23349.56805197  .00000020  00000-0  19365-4 0  9993,2 52502  53.2172  98.3757 0001312  76.7315 283.3823 15.08844821 89479,6917.866,95.437,540.638,538.823,0.0
52502.0,STARLINK-3912,PAYLOAD,2023-12-15 15:13:22,15.08846327,0.000137,53.2171,98.0785,75.0689,285.0455,5.0033e-05,5.09e-06,0.0,0 STARLINK-3912,1 52502U 22049BD  23349.63429156  .00000509  00000-0  50033-4 0  9997,2 52502  53.2171  98.0785 0001370  75.0689 285.0455 15.08846327 89480,6917.861,95.437,540.674,538.778,0.0
52502.0,STARLINK-3912,PAYLOAD,2023-12-16 13:28:46,15.08852567,0.0001661,53.2176,93.9151,65.2971,294.8194,-1.3899e-05,-5.09e-06,0.0,0 STARLINK-3912,1 52502U 22049BD  23350.56164624 -.00000509  00000-0 -13899-4 0  9998,2 52502  53.2176  93.9151 0001661  65.2971 294.8194 15.08852567 89621,6917.842,95.437,540.856,538.558,0.0
